ISS (ZARYA)             
1 25544U 98067A   26078.83953712  .00010217  00000+0  19745-3 0  9990
2 25544  51.6344  22.1830 0006242 209.8635 150.1998 15.48385427557904
POISK                   
1 36086U 09060A   26078.83953712  .00010217  00000+0  19745-3 0  9998
2 36086  51.6344  22.1830 0006242 209.8635 150.1998 15.48385427557660
CSS (TIANHE)            
1 48274U 21035A   26078.63256249  .00020528  00000+0  23901-3 0  9990
2 48274  41.4667 147.6390 0005809 335.1563  24.8996 15.61180567279166
ISS (NAUKA)             
1 49044U 21066A   26078.83953712  .00010217  00000+0  19745-3 0  9996
2 49044  51.6344  22.1830 0006242 209.8635 150.1998 15.48385427557703
FREGAT DEB              
1 49271U 11037PF  26078.75659826  .00009794  00000+0  13890-1 0  9996
2 49271  51.6477 270.5314 0964000  82.5020 288.4151 12.40502650213946
CSS (WENTIAN)           
1 53239U 22085A   26078.63256249  .00020528  00000+0  23901-3 0  9993
2 53239  41.4667 147.6390 0005809 335.1563  24.8996 15.61180567279163
CSS (MENGTIAN)          
1 54216U 22143A   26078.63256249  .00020528  00000+0  23901-3 0  9994
2 54216  41.4667 147.6390 0005809 335.1563  24.8996 15.61180567279169
TIANZHOU-9              
1 64786U 25149A   26078.63256249  .00020528  00000+0  23901-3 0  9996
2 64786  41.4667 147.6390 0005809 335.1563  24.8996 15.61180567279162
PROGRESS-MS 32          
1 65586U 25204A   26078.12958500  .00009105  00000+0  17698-3 0  9994
2 65586  51.6344  25.6919 0006229 207.4819 152.5840 15.48370465554504
YOTSUBA-KULOVER         
1 65941U 98067XN  26078.80625542  .00216609  00000+0  86847-3 0  9999
2 65941  51.6210   4.6288 0005016 144.6244 215.5094 15.85329120 25107
BOTAN                   
1 65943U 98067XQ  26078.81352836  .00205527  00000+0  84675-3 0  9999
2 65943  51.6234   4.6981 0005663 145.4858 214.6514 15.84788644 25109
HRC MONOBLOCK CAMERA    
1 66052U 98067XR  26078.86775251  .00037894  00000+0  40899-3 0  9996
2 66052  51.6296  14.1206 0003888 139.4733 220.6551 15.63256795 23983
